CCSDS_OMM_VERS = 2.0
CREATION_DATE  = 
ORIGINATOR     = 

OBJECT_NAME    = STARLINK-36924
OBJECT_ID      = 2026-041Q
CENTER_NAME    = EARTH
REF_FRAME      = TEME
TIME_SYSTEM    = UTC
MEAN_ELEMENT_THEORY = SGP/SGP4

EPOCH          = 2026-03-20T03:52:45.111936
MEAN_MOTION    = 15.75284075
ECCENTRICITY   = .0000899
INCLINATION    = 53.1606
RA_OF_ASC_NODE = 9.7306
ARG_OF_PERICENTER = 96.1693
MEAN_ANOMALY   = 263.9429

EPHEMERIS_TYPE = 0
CLASSIFICATION_TYPE = U
NORAD_CAT_ID   = 68054
ELEMENT_SET_NO = 999
REV_AT_EPOCH   = 287
BSTAR          = .10895E-2
MEAN_MOTION_DOT = .170106E-2
MEAN_MOTION_DDOT = 0

CCSDS_OMM_VERS = 2.0
CREATION_DATE  = 
ORIGINATOR     = 

OBJECT_NAME    = STARLINK-35998
OBJECT_ID      = 2026-041R
CENTER_NAME    = EARTH
REF_FRAME      = TEME
TIME_SYSTEM    = UTC
MEAN_ELEMENT_THEORY = SGP/SGP4

EPOCH          = 2026-03-20T05:00:07.263360
MEAN_MOTION    = 15.80931405
ECCENTRICITY   = .0001032
INCLINATION    = 53.1599
RA_OF_ASC_NODE = 9.3036
ARG_OF_PERICENTER = 86.1867
MEAN_ANOMALY   = 273.9273

EPHEMERIS_TYPE = 0
CLASSIFICATION_TYPE = U
NORAD_CAT_ID   = 68055
ELEMENT_SET_NO = 999
REV_AT_EPOCH   = 288
BSTAR          = .9025E-3
MEAN_MOTION_DOT = .181711E-2
MEAN_MOTION_DDOT = 0

CCSDS_OMM_VERS = 2.0
CREATION_DATE  = 
ORIGINATOR     = 

OBJECT_NAME    = STARLINK-36845
OBJECT_ID      = 2026-041S
CENTER_NAME    = EARTH
REF_FRAME      = TEME
TIME_SYSTEM    = UTC
MEAN_ELEMENT_THEORY = SGP/SGP4

EPOCH          = 2026-03-20T04:57:57.596832
MEAN_MOTION    = 15.80953967
ECCENTRICITY   = .0000887
INCLINATION    = 53.1597
RA_OF_ASC_NODE = 9.2930
ARG_OF_PERICENTER = 89.4004
MEAN_ANOMALY   = 270.7121

EPHEMERIS_TYPE = 0
CLASSIFICATION_TYPE = U
NORAD_CAT_ID   = 68056
ELEMENT_SET_NO = 999
REV_AT_EPOCH   = 288
BSTAR          = .12493E-2
MEAN_MOTION_DOT = .254222E-2
MEAN_MOTION_DDOT = 0

CCSDS_OMM_VERS = 2.0
CREATION_DATE  = 
ORIGINATOR     = 

OBJECT_NAME    = STARLINK-36954
OBJECT_ID      = 2026-041T
CENTER_NAME    = EARTH
REF_FRAME      = TEME
TIME_SYSTEM    = UTC
MEAN_ELEMENT_THEORY = SGP/SGP4

EPOCH          = 2026-03-20T03:52:16.879008
MEAN_MOTION    = 15.75289831
ECCENTRICITY   = .0000875
INCLINATION    = 53.1606
RA_OF_ASC_NODE = 9.7280
ARG_OF_PERICENTER = 98.2216
MEAN_ANOMALY   = 261.8904

EPHEMERIS_TYPE = 0
CLASSIFICATION_TYPE = U
NORAD_CAT_ID   = 68057
ELEMENT_SET_NO = 999
REV_AT_EPOCH   = 287
BSTAR          = .15088E-2
MEAN_MOTION_DOT = .237792E-2
MEAN_MOTION_DDOT = 0

CCSDS_OMM_VERS = 2.0
CREATION_DATE  = 
ORIGINATOR     = 

OBJECT_NAME    = STARLINK-36899
OBJECT_ID      = 2026-041U
CENTER_NAME    = EARTH
REF_FRAME      = TEME
TIME_SYSTEM    = UTC
MEAN_ELEMENT_THEORY = SGP/SGP4

EPOCH          = 2026-03-20T03:46:13.160064
MEAN_MOTION    = 15.75299575
ECCENTRICITY   = .0000931
INCLINATION    = 53.1604
RA_OF_ASC_NODE = 9.6992
ARG_OF_PERICENTER = 114.9456
MEAN_ANOMALY   = 245.1661

EPHEMERIS_TYPE = 0
CLASSIFICATION_TYPE = U
NORAD_CAT_ID   = 68058
ELEMENT_SET_NO = 999
REV_AT_EPOCH   = 287
BSTAR          = .16482E-2
MEAN_MOTION_DOT = .260637E-2
MEAN_MOTION_DDOT = 0

CCSDS_OMM_VERS = 2.0
CREATION_DATE  = 
ORIGINATOR     = 

OBJECT_NAME    = STARLINK-36917
OBJECT_ID      = 2026-041V
CENTER_NAME    = EARTH
REF_FRAME      = TEME
TIME_SYSTEM    = UTC
MEAN_ELEMENT_THEORY = SGP/SGP4

EPOCH          = 2026-03-20T02:00:03.000384
MEAN_MOTION    = 15.75232026
ECCENTRICITY   = .000112
INCLINATION    = 53.1598
RA_OF_ASC_NODE = 9.9572
ARG_OF_PERICENTER = 76.0914
MEAN_ANOMALY   = 279.0670

EPHEMERIS_TYPE = 0
CLASSIFICATION_TYPE = U
NORAD_CAT_ID   = 68059
ELEMENT_SET_NO = 999
REV_AT_EPOCH   = 404
BSTAR          = -.79324E-4
MEAN_MOTION_DOT = -.12776E-3
MEAN_MOTION_DDOT = 0

CCSDS_OMM_VERS = 2.0
CREATION_DATE  = 
ORIGINATOR     = 

OBJECT_NAME    = STARLINK-36959
OBJECT_ID      = 2026-041W
CENTER_NAME    = EARTH
REF_FRAME      = TEME
TIME_SYSTEM    = UTC
MEAN_ELEMENT_THEORY = SGP/SGP4

EPOCH          = 2026-03-20T02:00:03.000384
MEAN_MOTION    = 15.75259424
ECCENTRICITY   = .0000881
INCLINATION    = 53.1597
RA_OF_ASC_NODE = 10.0126
ARG_OF_PERICENTER = 75.3288
MEAN_ANOMALY   = 252.1934

EPHEMERIS_TYPE = 0
CLASSIFICATION_TYPE = U
NORAD_CAT_ID   = 68060
ELEMENT_SET_NO = 999
REV_AT_EPOCH   = 404
BSTAR          = -.24917E-3
MEAN_MOTION_DOT = -.38693E-3
MEAN_MOTION_DDOT = 0

CCSDS_OMM_VERS = 2.0
CREATION_DATE  = 
ORIGINATOR     = 

OBJECT_NAME    = STARLINK-36915
OBJECT_ID      = 2026-041X
CENTER_NAME    = EARTH
REF_FRAME      = TEME
TIME_SYSTEM    = UTC
MEAN_ELEMENT_THEORY = SGP/SGP4

EPOCH          = 2026-03-20T04:52:33.468960
MEAN_MOTION    = 15.80919933
ECCENTRICITY   = .0000907
INCLINATION    = 53.1597
RA_OF_ASC_NODE = 9.2671
ARG_OF_PERICENTER = 92.8739
MEAN_ANOMALY   = 267.2388

EPHEMERIS_TYPE = 0
CLASSIFICATION_TYPE = U
NORAD_CAT_ID   = 68061
ELEMENT_SET_NO = 999
REV_AT_EPOCH   = 288
BSTAR          = .69655E-3
MEAN_MOTION_DOT = .139317E-2
MEAN_MOTION_DDOT = 0

CCSDS_OMM_VERS = 2.0
CREATION_DATE  = 
ORIGINATOR     = 

OBJECT_NAME    = STARLINK-36952
OBJECT_ID      = 2026-041Y
CENTER_NAME    = EARTH
REF_FRAME      = TEME
TIME_SYSTEM    = UTC
MEAN_ELEMENT_THEORY = SGP/SGP4

EPOCH          = 2026-03-20T03:45:44.407008
MEAN_MOTION    = 15.75296907
ECCENTRICITY   = .0000879
INCLINATION    = 53.1605
RA_OF_ASC_NODE = 9.6975
ARG_OF_PERICENTER = 120.7528
MEAN_ANOMALY   = 239.3579

EPHEMERIS_TYPE = 0
CLASSIFICATION_TYPE = U
NORAD_CAT_ID   = 68062
ELEMENT_SET_NO = 999
REV_AT_EPOCH   = 287
BSTAR          = .11746E-2
MEAN_MOTION_DOT = .183834E-2
MEAN_MOTION_DDOT = 0

CCSDS_OMM_VERS = 2.0
CREATION_DATE  = 
ORIGINATOR     = 

OBJECT_NAME    = STARLINK-37000
OBJECT_ID      = 2026-041Z
CENTER_NAME    = EARTH
REF_FRAME      = TEME
TIME_SYSTEM    = UTC
MEAN_ELEMENT_THEORY = SGP/SGP4

EPOCH          = 2026-03-19T09:06:55.838880
MEAN_MOTION    = 15.80839388
ECCENTRICITY   = .00003875
INCLINATION    = 53.1597
RA_OF_ASC_NODE = 13.3751
ARG_OF_PERICENTER = 129.0929
MEAN_ANOMALY   = 231.0129

EPHEMERIS_TYPE = 0
CLASSIFICATION_TYPE = U
NORAD_CAT_ID   = 68063
ELEMENT_SET_NO = 999
REV_AT_EPOCH   = 275
BSTAR          = -.12107026E-3
MEAN_MOTION_DOT = -.24486E-3
MEAN_MOTION_DDOT = 0

CCSDS_OMM_VERS = 2.0
CREATION_DATE  = 
ORIGINATOR     = 

OBJECT_NAME    = STARLINK-36996
OBJECT_ID      = 2026-041AA
CENTER_NAME    = EARTH
REF_FRAME      = TEME
TIME_SYSTEM    = UTC
MEAN_ELEMENT_THEORY = SGP/SGP4

EPOCH          = 2026-03-20T04:49:19.030080
MEAN_MOTION    = 15.80954059
ECCENTRICITY   = .0000931
INCLINATION    = 53.1596
RA_OF_ASC_NODE = 9.2519
ARG_OF_PERICENTER = 94.1441
MEAN_ANOMALY   = 265.9689

EPHEMERIS_TYPE = 0
CLASSIFICATION_TYPE = U
NORAD_CAT_ID   = 68064
ELEMENT_SET_NO = 999
REV_AT_EPOCH   = 288
BSTAR          = .11928E-2
MEAN_MOTION_DOT = .242353E-2
MEAN_MOTION_DDOT = 0

CCSDS_OMM_VERS = 2.0
CREATION_DATE  = 
ORIGINATOR     = 

OBJECT_NAME    = STARLINK-36836
OBJECT_ID      = 2026-041AB
CENTER_NAME    = EARTH
REF_FRAME      = TEME
TIME_SYSTEM    = UTC
MEAN_ELEMENT_THEORY = SGP/SGP4

EPOCH          = 2026-03-20T04:47:09.494880
MEAN_MOTION    = 15.80929834
ECCENTRICITY   = .0001035
INCLINATION    = 53.1597
RA_OF_ASC_NODE = 9.2411
ARG_OF_PERICENTER = 75.8994
MEAN_ANOMALY   = 284.2144

EPHEMERIS_TYPE = 0
CLASSIFICATION_TYPE = U
NORAD_CAT_ID   = 68065
ELEMENT_SET_NO = 999
REV_AT_EPOCH   = 288
BSTAR          = .80879E-3
MEAN_MOTION_DOT = .162391E-2
MEAN_MOTION_DDOT = 0

