STARLINK-36924          
1 68054U 26041Q   26079.16163324  .00170106  00000+0  10895-2 0  9995
2 68054  53.1606   9.7306 0000899  96.1693 263.9429 15.75284075  2877
STARLINK-35998          
1 68055U 26041R   26079.20841740  .00181711  00000+0  90250-3 0  9994
2 68055  53.1599   9.3036 0001032  86.1867 273.9273 15.80931405  2888
STARLINK-36845          
1 68056U 26041S   26079.20691663  .00254222  00000+0  12493-2 0  9992
2 68056  53.1597   9.2930 0000887  89.4004 270.7121 15.80953967  2889
STARLINK-36954          
1 68057U 26041T   26079.16130647  .00237792  00000+0  15088-2 0  9994
2 68057  53.1606   9.7280 0000875  98.2216 261.8904 15.75289831  2879
STARLINK-36899          
1 68058U 26041U   26079.15709676  .00260637  00000+0  16482-2 0  9991
2 68058  53.1604   9.6992 0000931 114.9456 245.1661 15.75299575  2873
STARLINK-36917          
1 68059U 26041V   26079.08336806 -.00012776  00000+0 -79324-4 0  9992
2 68059  53.1598   9.9572 0001120  76.0914 279.0670 15.75232026  4046
STARLINK-36959          
1 68060U 26041W   26079.08336806 -.00038693  00000+0 -24917-3 0  9997
2 68060  53.1597  10.0126 0000881  75.3288 252.1934 15.75259424  4040
STARLINK-36915          
1 68061U 26041X   26079.20316515  .00139317  00000+0  69655-3 0  9998
2 68061  53.1597   9.2671 0000907  92.8739 267.2388 15.80919933  2884
STARLINK-36952          
1 68062U 26041Y   26079.15676397  .00183834  00000+0  11746-2 0  9990
2 68062  53.1605   9.6975 0000879 120.7528 239.3579 15.75296907  2875
STARLINK-37000          
1 68063U 26041Z   26078.37981295 -.00024486  00000+0 -12107-3 0  9992
2 68063  53.1597  13.3751 0000387 129.0929 231.0129 15.80839388  2750
STARLINK-36996          
1 68064U 26041AA  26079.20091470  .00242353  00000+0  11928-2 0  9995
2 68064  53.1596   9.2519 0000931  94.1441 265.9689 15.80954059  2886
STARLINK-36836          
1 68065U 26041AB  26079.19941545  .00162391  00000+0  80879-3 0  9996
2 68065  53.1597   9.2411 0001035  75.8994 284.2144 15.80929834  2887
